{
  "norad_id": 51977,
  "name": "STARLINK-3660",
  "history": [
    {
      "epoch": "2026-03-28T19:51:57.295008",
      "apogee_km": 540.6278322849766,
      "perigee_km": 538.852013278899,
      "latitude_deg": 0.004304068403290733,
      "longitude_deg": 177.16366111999378,
      "semi_major_axis_km": 6917.8769227819375,
      "eccentricity": 0.00012835,
      "inclination_deg": 53.2172,
      "raan_deg": 293.2148,
      "arg_perigee_deg": 97.0148,
      "mean_anomaly_deg": 263.099,
      "mean_motion_rev_day": 15.08841134
    }
  ]
}