{"fetched_at":"2026-03-30T13:17:50Z","count":15418,"tles":[{"name":"STARLINK-3660","line1":"1 51977U 22025X   26087.82774647  .00000555  00000+0  52961-4 0  9999","line2":"2 51977  53.2172 293.2148 0001283  97.0148 263.0990 15.08841134224229","category":"Starlink"}]}